start=new Date('2022-06-26T00:00:00.000Z').valueOf();
sats=[{"APOAPSIS":"455.665","MEAN_ANOMALY":"19.0098","GP_ID":"206858235","ECCENTRICITY":"0.00014070","MEAN_MOTION_DDOT":"0.0000000000000","OBJECT_NAME":"STARLINK-3940","CLASSIFICATION_TYPE":"U","REF_FRAME":"TEME","OBJECT_ID":"2022-051H","TLE_LINE1":"1 52540U 22051H   22176.91667824 -.00719282  00000-0 -21138-1 0  9994","MEAN_ELEMENT_THEORY":"SGP4","SEMIMAJOR_AXIS":"6832.839","COUNTRY_CODE":"US","MEAN_MOTION_DOT":"-0.00719282","INCLINATION":"53.2175","SITE":"AFWTR","DECAY_DATE":null,"FILE":"3502557","OBJECT_TYPE":"PAYLOAD","TLE_LINE2":"2 52540  53.2175  83.7752 0001407  50.4644  19.0098 15.37096034  1307","ELEMENT_SET_NO":"999","CENTER_NAME":"EARTH","MEAN_MOTION":"15.37096034","BSTAR":"-0.02113800000000","EPOCH":"2022-06-25T22:00:00.999936","NORAD_CAT_ID":"52540","EPHEMERIS_TYPE":"0","RA_OF_ASC_NODE":"83.7752","ARG_OF_PERICENTER":"50.4644","PERIAPSIS":"453.742","REV_AT_EPOCH":"130","LAUNCH_DATE":"2022-05-13","PERIOD":"93.683","TIME_SYSTEM":"UTC","RCS_SIZE":"LARGE"},{"OBJECT_NAME":"STARLINK-3845","CLASSIFICATION_TYPE":"U","MEAN_ANOMALY":"30.8940","APOAPSIS":"524.351","MEAN_MOTION_DDOT":"0.0000000000000","GP_ID":"206858546","ECCENTRICITY":"0.00017020","MEAN_MOTION_DOT":"-0.00846539","SITE":"AFWTR","INCLINATION":"53.2175","REF_FRAME":"TEME","MEAN_ELEMENT_THEORY":"SGP4","TLE_LINE1":"1 52541U 22051J   22176.91667824 -.00846539  00000-0 -49096-1 0  9994","COUNTRY_CODE":"US","SEMIMAJOR_AXIS":"6901.312","OBJECT_ID":"2022-051J","TLE_LINE2":"2 52541  53.2175  87.0311 0001702  41.6937  30.8940 15.14276901  1306","OBJECT_TYPE":"PAYLOAD","CENTER_NAME":"EARTH","MEAN_MOTION":"15.14276901","ELEMENT_SET_NO":"999","DECAY_DATE":null,"FILE":"3502557","RCS_SIZE":"LARGE","TIME_SYSTEM":"UTC","LAUNCH_DATE":"2022-05-13","PERIOD":"95.095","EPHEMERIS_TYPE":"0","RA_OF_ASC_NODE":"87.0311","BSTAR":"-0.04909600000000","EPOCH":"2022-06-25T22:00:00.999936","NORAD_CAT_ID":"52541","PERIAPSIS":"522.002","ARG_OF_PERICENTER":"41.6937","REV_AT_EPOCH":"130"},{"PERIAPSIS":"453.240","REV_AT_EPOCH":"130","ARG_OF_PERICENTER":"60.0761","EPHEMERIS_TYPE":"0","RA_OF_ASC_NODE":"83.7840","EPOCH":"2022-06-25T22:00:00.999936","NORAD_CAT_ID":"52542","BSTAR":"-0.02099300000000","RCS_SIZE":"LARGE","TIME_SYSTEM":"UTC","LAUNCH_DATE":"2022-05-13","PERIOD":"93.671","FILE":"3502557","DECAY_DATE":null,"MEAN_MOTION":"15.37294103","CENTER_NAME":"EARTH","ELEMENT_SET_NO":"999","TLE_LINE2":"2 52542  53.2175  83.7840 0001283  60.0761  16.1656 15.37294103  1301","OBJECT_TYPE":"PAYLOAD","COUNTRY_CODE":"US","SEMIMAJOR_AXIS":"6832.252","TLE_LINE1":"1 52542U 22051K   22176.91667824 -.00718978  00000-0 -20993-1 0  9995","MEAN_ELEMENT_THEORY":"SGP4","OBJECT_ID":"2022-051K","REF_FRAME":"TEME","SITE":"AFWTR","INCLINATION":"53.2175","MEAN_MOTION_DOT":"-0.00718978","MEAN_MOTION_DDOT":"0.0000000000000","ECCENTRICITY":"0.00012830","GP_ID":"206857992","MEAN_ANOMALY":"16.1656","APOAPSIS":"454.993","CLASSIFICATION_TYPE":"U","OBJECT_NAME":"STARLINK-3937"},{"FILE":"3502557","DECAY_DATE":null,"MEAN_MOTION":"15.36699616","CENTER_NAME":"EARTH","ELEMENT_SET_NO":"999","TLE_LINE2":"2 52543  53.2176  83.7574 0001273  58.6185 357.0436 15.36699616  1309","OBJECT_TYPE":"PAYLOAD","REV_AT_EPOCH":"130","PERIAPSIS":"455.009","ARG_OF_PERICENTER":"58.6185","EPHEMERIS_TYPE":"0","RA_OF_ASC_NODE":"83.7574","NORAD_CAT_ID":"52543","EPOCH":"2022-06-25T22:00:00.999936","BSTAR":"-0.02141100000000","RCS_SIZE":"LARGE","LAUNCH_DATE":"2022-05-13","TIME_SYSTEM":"UTC","PERIOD":"93.707","MEAN_MOTION_DDOT":"0.0000000000000","ECCENTRICITY":"0.00012730","GP_ID":"206858095","MEAN_ANOMALY":"357.0436","APOAPSIS":"456.749","CLASSIFICATION_TYPE":"U","OBJECT_NAME":"STARLINK-3926","COUNTRY_CODE":"US","SEMIMAJOR_AXIS":"6834.014","TLE_LINE1":"1 52543U 22051L   22176.91667824 -.00719228  00000-0 -21411-1 0  9991","MEAN_ELEMENT_THEORY":"SGP4","OBJECT_ID":"2022-051L","REF_FRAME":"TEME","SITE":"AFWTR","INCLINATION":"53.2176","MEAN_MOTION_DOT":"-0.00719228"},{"RCS_SIZE":"LARGE","LAUNCH_DATE":"2022-05-13","PERIOD":"95.067","TIME_SYSTEM":"UTC","EPHEMERIS_TYPE":"0","RA_OF_ASC_NODE":"87.0369","EPOCH":"2022-06-25T22:00:00.999936","NORAD_CAT_ID":"52544","BSTAR":"-0.04844000000000","REV_AT_EPOCH":"130","PERIAPSIS":"520.302","ARG_OF_PERICENTER":"28.7236","TLE_LINE2":"2 52544  53.2173  87.0369 0002211  28.7236  78.7914 15.14721139  1304","OBJECT_TYPE":"PAYLOAD","MEAN_MOTION":"15.14721139","CENTER_NAME":"EARTH","ELEMENT_SET_NO":"999","DECAY_DATE":null,"FILE":"3502557","MEAN_MOTION_DOT":"-0.00845941","SITE":"AFWTR","INCLINATION":"53.2173","REF_FRAME":"TEME","COUNTRY_CODE":"US","SEMIMAJOR_AXIS":"6899.962","TLE_LINE1":"1 52544U 22051M   22176.91667824 -.00845941  00000-0 -48440-1 0  9995","MEAN_ELEMENT_THEORY":"SGP4","OBJECT_ID":"2022-051M","OBJECT_NAME":"STARLINK-3944","CLASSIFICATION_TYPE":"U","MEAN_ANOMALY":"78.7914","APOAPSIS":"523.353","MEAN_MOTION_DDOT":"0.0000000000000","ECCENTRICITY":"0.00022110","GP_ID":"206857889"},{"MEAN_MOTION":"15.36897846","CENTER_NAME":"EARTH","ELEMENT_SET_NO":"999","TLE_LINE2":"2 52545  53.2175  83.7663 0001366  52.4847  10.1297 15.36897846  1306","OBJECT_TYPE":"PAYLOAD","FILE":"3502557","DECAY_DATE":null,"RCS_SIZE":"LARGE","PERIOD":"93.695","LAUNCH_DATE":"2022-05-13","TIME_SYSTEM":"UTC","PERIAPSIS":"454.358","ARG_OF_PERICENTER":"52.4847","REV_AT_EPOCH":"130","EPHEMERIS_TYPE":"0","RA_OF_ASC_NODE":"83.7663","EPOCH":"2022-06-25T22:00:00.999936","NORAD_CAT_ID":"52545","BSTAR":"-0.02127500000000","CLASSIFICATION_TYPE":"U","OBJECT_NAME":"STARLINK-3939","MEAN_MOTION_DDOT":"0.0000000000000","ECCENTRICITY":"0.00013660","GP_ID":"206858612","MEAN_ANOMALY":"10.1297","APOAPSIS":"456.225","SITE":"AFWTR","INCLINATION":"53.2175","MEAN_MOTION_DOT":"-0.00719286","COUNTRY_CODE":"US","SEMIMAJOR_AXIS":"6833.426","TLE_LINE1":"1 52545U 22051N   22176.91667824 -.00719286  00000-0 -21275-1 0  9995","MEAN_ELEMENT_THEORY":"SGP4","OBJECT_ID":"2022-051N","REF_FRAME":"TEME"},{"OBJECT_TYPE":"PAYLOAD","TLE_LINE2":"2 52546  53.2174  83.7978 0001479  48.2046  40.2790 15.37628746  1308","ELEMENT_SET_NO":"999","MEAN_MOTION":"15.37628746","CENTER_NAME":"EARTH","DECAY_DATE":null,"FILE":"3502557","LAUNCH_DATE":"2022-05-13","PERIOD":"93.651","TIME_SYSTEM":"UTC","RCS_SIZE":"LARGE","NORAD_CAT_ID":"52546","EPOCH":"2022-06-25T22:00:00.999936","BSTAR":"-0.02076000000000","RA_OF_ASC_NODE":"83.7978","EPHEMERIS_TYPE":"0","PERIAPSIS":"452.115","ARG_OF_PERICENTER":"48.2046","REV_AT_EPOCH":"130","OBJECT_NAME":"STARLINK-3948","CLASSIFICATION_TYPE":"U","APOAPSIS":"454.136","MEAN_ANOMALY":"40.2790","ECCENTRICITY":"0.00014790","GP_ID":"206858339","MEAN_MOTION_DDOT":"0.0000000000000","MEAN_MOTION_DOT":"-0.00718844","INCLINATION":"53.2174","SITE":"AFWTR","REF_FRAME":"TEME","OBJECT_ID":"2022-051P","COUNTRY_CODE":"US","SEMIMAJOR_AXIS":"6831.261","MEAN_ELEMENT_THEORY":"SGP4","TLE_LINE1":"1 52546U 22051P   22176.91667824 -.00718844  00000-0 -20760-1 0  9993"},{"PERIAPSIS":"521.288","ARG_OF_PERICENTER":"38.9859","REV_AT_EPOCH":"130","NORAD_CAT_ID":"52547","EPOCH":"2022-06-25T22:00:00.999936","BSTAR":"-0.04878400000000","EPHEMERIS_TYPE":"0","RA_OF_ASC_NODE":"87.0338","PERIOD":"95.082","LAUNCH_DATE":"2022-05-13","TIME_SYSTEM":"UTC","RCS_SIZE":"LARGE","FILE":"3502557","DECAY_DATE":null,"ELEMENT_SET_NO":"999","MEAN_MOTION":"15.14489875","CENTER_NAME":"EARTH","OBJECT_TYPE":"PAYLOAD","TLE_LINE2":"2 52547  53.2174  87.0338 0001800  38.9859  51.2200 15.14489875  1303","OBJECT_ID":"2022-051Q","COUNTRY_CODE":"US","SEMIMAJOR_AXIS":"6900.665","MEAN_ELEMENT_THEORY":"SGP4","TLE_LINE1":"1 52547U 22051Q   22176.91667824 -.00846287  00000-0 -48784-1 0  9993","REF_FRAME":"TEME","INCLINATION":"53.2174","SITE":"AFWTR","MEAN_MOTION_DOT":"-0.00846287","ECCENTRICITY":"0.00018000","GP_ID":"206858442","MEAN_MOTION_DDOT":"0.0000000000000","APOAPSIS":"523.772","MEAN_ANOMALY":"51.2200","CLASSIFICATION_TYPE":"U","OBJECT_NAME":"STARLINK-3869"},{"OBJECT_ID":"2022-051R","SEMIMAJOR_AXIS":"6828.781","COUNTRY_CODE":"US","TLE_LINE1":"1 52548U 22051R   22176.91667824 -.00718201  00000-0 -20179-1 0  9996","MEAN_ELEMENT_THEORY":"SGP4","REF_FRAME":"TEME","INCLINATION":"53.2174","SITE":"AFWTR","MEAN_MOTION_DOT":"-0.00718201","ECCENTRICITY":"0.00014050","GP_ID":"206858236","MEAN_MOTION_DDOT":"0.0000000000000","APOAPSIS":"451.605","MEAN_ANOMALY":"59.6074","CLASSIFICATION_TYPE":"U","OBJECT_NAME":"STARLINK-3931","ARG_OF_PERICENTER":"56.4546","PERIAPSIS":"449.686","REV_AT_EPOCH":"130","NORAD_CAT_ID":"52548","EPOCH":"2022-06-25T22:00:00.999936","BSTAR":"-0.02017900000000","EPHEMERIS_TYPE":"0","RA_OF_ASC_NODE":"83.8332","LAUNCH_DATE":"2022-05-13","PERIOD":"93.600","TIME_SYSTEM":"UTC","RCS_SIZE":"LARGE","FILE":"3502557","DECAY_DATE":null,"ELEMENT_SET_NO":"999","MEAN_MOTION":"15.38466348","CENTER_NAME":"EARTH","OBJECT_TYPE":"PAYLOAD","TLE_LINE2":"2 52548  53.2174  83.8332 0001405  56.4546  59.6074 15.38466348  1308"},{"EPOCH":"2022-06-25T22:00:00.999936","NORAD_CAT_ID":"52549","BSTAR":"-0.02086500000000","RA_OF_ASC_NODE":"83.7917","EPHEMERIS_TYPE":"0","REV_AT_EPOCH":"130","PERIAPSIS":"452.588","ARG_OF_PERICENTER":"51.3563","LAUNCH_DATE":"2022-05-13","PERIOD":"93.659","TIME_SYSTEM":"UTC","RCS_SIZE":"LARGE","DECAY_DATE":null,"FILE":"3502557","OBJECT_TYPE":"PAYLOAD","TLE_LINE2":"2 52549  53.2175  83.7917 0001413  51.3563  32.0908 15.37484454  1308","ELEMENT_SET_NO":"999","MEAN_MOTION":"15.37484454","CENTER_NAME":"EARTH","REF_FRAME":"TEME","OBJECT_ID":"2022-051S","COUNTRY_CODE":"US","SEMIMAJOR_AXIS":"6831.688","TLE_LINE1":"1 52549U 22051S   22176.91667824 -.00719057  00000-0 -20865-1 0  9999","MEAN_ELEMENT_THEORY":"SGP4","MEAN_MOTION_DOT":"-0.00719057","INCLINATION":"53.2175","SITE":"AFWTR","APOAPSIS":"454.518","MEAN_ANOMALY":"32.0908","ECCENTRICITY":"0.00014130","GP_ID":"206858547","MEAN_MOTION_DDOT":"0.0000000000000","OBJECT_NAME":"STARLINK-3935","CLASSIFICATION_TYPE":"U"}];
